[{"OBJECT_NAME":"APRIZESAT 1","OBJECT_ID":"2004-025G","EPOCH":"2026-03-09T23:27:31.277376","MEAN_MOTION":14.51715108,"ECCENTRICITY":0.00458388,"INCLINATION":98.6346,"RA_OF_ASC_NODE":76.9867,"ARG_OF_PERICENTER":96.737,"MEAN_ANOMALY":263.9043,"EPHEMERIS_TYPE":0,"CLASSIFICATION_TYPE":"U","NORAD_CAT_ID":28372,"ELEMENT_SET_NO":999,"REV_AT_EPOCH":14751,"BSTAR":0.00011028964,"MEAN_MOTION_DOT":4.0e-6,"MEAN_MOTION_DDOT":0},{"OBJECT_NAME":"COSMOS 2251 DEB","OBJECT_ID":"1993-036BNM","EPOCH":"2026-03-02T07:27:48.513888","MEAN_MOTION":14.42560018,"ECCENTRICITY":0.00146993,"INCLINATION":74.0488,"RA_OF_ASC_NODE":68.2344,"ARG_OF_PERICENTER":159.9877,"MEAN_ANOMALY":212.1898,"EPHEMERIS_TYPE":0,"CLASSIFICATION_TYPE":"U","NORAD_CAT_ID":37532,"ELEMENT_SET_NO":999,"REV_AT_EPOCH":86063,"BSTAR":0.00025374803,"MEAN_MOTION_DOT":8.17e-6,"MEAN_MOTION_DDOT":0}]
